start=new Date('2022-08-29T00:00:00.000Z').valueOf();
sats=[{"TLE_LINE2":"2 53473  97.6558 359.6503 0001993  60.7096 102.2034 15.67543728  1309","MEAN_MOTION_DDOT":"0.0000000000000","OBJECT_TYPE":"PAYLOAD","COUNTRY_CODE":"US","ELEMENT_SET_NO":"999","GP_ID":"211215657","MEAN_MOTION_DOT":"-0.01214684","SEMIMAJOR_AXIS":"6744.070","ECCENTRICITY":"0.00019930","CENTER_NAME":"EARTH","APOAPSIS":"367.279","TLE_LINE1":"1 53473U 22099J   22240.91667824 -.01214684  00000-0 -12445-1 0  9992","MEAN_ANOMALY":"102.2034","TIME_SYSTEM":"UTC","EPHEMERIS_TYPE":"0","MEAN_MOTION":"15.67543728","BSTAR":"-0.01244500000000","MEAN_ELEMENT_THEORY":"SGP4","RA_OF_ASC_NODE":"359.6503","FILE":"3550014","PERIAPSIS":"364.591","REV_AT_EPOCH":"130","NORAD_CAT_ID":"53473","INCLINATION":"97.6558","OBJECT_ID":"2022-099J","LAUNCH_DATE":"2022-08-12","REF_FRAME":"TEME","OBJECT_NAME":"STARLINK-4383","CLASSIFICATION_TYPE":"U","SITE":"AFWTR","PERIOD":"91.863","RCS_SIZE":"LARGE","ARG_OF_PERICENTER":"60.7096","EPOCH":"2022-08-28T22:00:00.999936","DECAY_DATE":null},{"MEAN_MOTION_DOT":"-0.01214885","SEMIMAJOR_AXIS":"6743.987","ECCENTRICITY":"0.00019240","GP_ID":"211215094","ELEMENT_SET_NO":"999","TLE_LINE2":"2 53474  97.6558 359.6504 0001924  66.9962  98.4081 15.67572569  1308","MEAN_MOTION_DDOT":"0.0000000000000","OBJECT_TYPE":"PAYLOAD","COUNTRY_CODE":"US","FILE":"3550014","PERIAPSIS":"364.555","TIME_SYSTEM":"UTC","EPHEMERIS_TYPE":"0","MEAN_MOTION":"15.67572569","MEAN_ELEMENT_THEORY":"SGP4","BSTAR":"-0.01243300000000","RA_OF_ASC_NODE":"359.6504","MEAN_ANOMALY":"98.4081","CENTER_NAME":"EARTH","TLE_LINE1":"1 53474U 22099K   22240.91667824 -.01214885  00000-0 -12433-1 0  9993","APOAPSIS":"367.150","REF_FRAME":"TEME","LAUNCH_DATE":"2022-08-12","INCLINATION":"97.6558","OBJECT_ID":"2022-099K","REV_AT_EPOCH":"130","NORAD_CAT_ID":"53474","ARG_OF_PERICENTER":"66.9962","EPOCH":"2022-08-28T22:00:00.999936","DECAY_DATE":null,"SITE":"AFWTR","PERIOD":"91.862","RCS_SIZE":"LARGE","OBJECT_NAME":"STARLINK-4445","CLASSIFICATION_TYPE":"U"},{"ELEMENT_SET_NO":"999","MEAN_MOTION_DDOT":"0.0000000000000","COUNTRY_CODE":"US","OBJECT_TYPE":"PAYLOAD","TLE_LINE2":"2 53475  97.6558 359.6504 0001972  62.4481 101.0878 15.67550949  1302","ECCENTRICITY":"0.00019720","MEAN_MOTION_DOT":"-0.01214734","SEMIMAJOR_AXIS":"6744.049","GP_ID":"211215963","MEAN_ANOMALY":"101.0878","APOAPSIS":"367.244","TLE_LINE1":"1 53475U 22099L   22240.91667824 -.01214734  00000-0 -12442-1 0  9997","CENTER_NAME":"EARTH","PERIAPSIS":"364.584","FILE":"3550014","MEAN_ELEMENT_THEORY":"SGP4","BSTAR":"-0.01244200000000","RA_OF_ASC_NODE":"359.6504","EPHEMERIS_TYPE":"0","TIME_SYSTEM":"UTC","MEAN_MOTION":"15.67550949","OBJECT_ID":"2022-099L","INCLINATION":"97.6558","REV_AT_EPOCH":"130","NORAD_CAT_ID":"53475","REF_FRAME":"TEME","LAUNCH_DATE":"2022-08-12","CLASSIFICATION_TYPE":"U","OBJECT_NAME":"STARLINK-4389","DECAY_DATE":null,"ARG_OF_PERICENTER":"62.4481","EPOCH":"2022-08-28T22:00:00.999936","PERIOD":"91.863","RCS_SIZE":"LARGE","SITE":"AFWTR"},{"MEAN_ANOMALY":"89.7115","APOAPSIS":"367.241","TLE_LINE1":"1 53476U 22099M   22240.91667824 -.01215421  00000-0 -12461-1 0  9993","CENTER_NAME":"EARTH","FILE":"3550014","PERIAPSIS":"364.709","BSTAR":"-0.01246100000000","MEAN_ELEMENT_THEORY":"SGP4","RA_OF_ASC_NODE":"359.6498","TIME_SYSTEM":"UTC","EPHEMERIS_TYPE":"0","MEAN_MOTION":"15.67529843","ELEMENT_SET_NO":"999","MEAN_MOTION_DDOT":"0.0000000000000","COUNTRY_CODE":"US","OBJECT_TYPE":"PAYLOAD","TLE_LINE2":"2 53476  97.6558 359.6498 0001877  71.9552  89.7115 15.67529843  1308","ECCENTRICITY":"0.00018770","MEAN_MOTION_DOT":"-0.01215421","SEMIMAJOR_AXIS":"6744.110","GP_ID":"211215367","CLASSIFICATION_TYPE":"U","OBJECT_NAME":"STARLINK-4378","DECAY_DATE":null,"ARG_OF_PERICENTER":"71.9552","EPOCH":"2022-08-28T22:00:00.999936","PERIOD":"91.864","RCS_SIZE":"LARGE","SITE":"AFWTR","OBJECT_ID":"2022-099M","INCLINATION":"97.6558","REV_AT_EPOCH":"130","NORAD_CAT_ID":"53476","REF_FRAME":"TEME","LAUNCH_DATE":"2022-08-12"},{"SITE":"AFWTR","PERIOD":"91.862","RCS_SIZE":"LARGE","ARG_OF_PERICENTER":"65.1402","EPOCH":"2022-08-28T22:00:00.999936","DECAY_DATE":null,"OBJECT_NAME":"STARLINK-4412","CLASSIFICATION_TYPE":"U","LAUNCH_DATE":"2022-08-12","REF_FRAME":"TEME","REV_AT_EPOCH":"130","NORAD_CAT_ID":"53477","INCLINATION":"97.6558","OBJECT_ID":"2022-099N","EPHEMERIS_TYPE":"0","TIME_SYSTEM":"UTC","MEAN_MOTION":"15.67565315","BSTAR":"-0.01243500000000","MEAN_ELEMENT_THEORY":"SGP4","RA_OF_ASC_NODE":"359.6505","FILE":"3550014","PERIAPSIS":"364.564","CENTER_NAME":"EARTH","TLE_LINE1":"1 53477U 22099N   22240.91667824 -.01214745  00000-0 -12435-1 0  9993","APOAPSIS":"367.182","MEAN_ANOMALY":"99.6414","GP_ID":"211215822","MEAN_MOTION_DOT":"-0.01214745","SEMIMAJOR_AXIS":"6744.008","ECCENTRICITY":"0.00019410","TLE_LINE2":"2 53477  97.6558 359.6505 0001941  65.1402  99.6414 15.67565315  1305","MEAN_MOTION_DDOT":"0.0000000000000","COUNTRY_CODE":"US","OBJECT_TYPE":"PAYLOAD","ELEMENT_SET_NO":"999"},{"OBJECT_ID":"2022-099P","INCLINATION":"97.6558","NORAD_CAT_ID":"53478","REV_AT_EPOCH":"130","REF_FRAME":"TEME","LAUNCH_DATE":"2022-08-12","CLASSIFICATION_TYPE":"U","OBJECT_NAME":"STARLINK-4433","DECAY_DATE":null,"EPOCH":"2022-08-28T22:00:00.999936","ARG_OF_PERICENTER":"73.4291","RCS_SIZE":"LARGE","PERIOD":"91.864","SITE":"AFWTR","ELEMENT_SET_NO":"999","OBJECT_TYPE":"PAYLOAD","COUNTRY_CODE":"US","MEAN_MOTION_DDOT":"0.0000000000000","TLE_LINE2":"2 53478  97.6558 359.6500 0001868  73.4291  88.8607 15.67537056  1302","ECCENTRICITY":"0.00018680","SEMIMAJOR_AXIS":"6744.089","MEAN_MOTION_DOT":"-0.01215475","GP_ID":"211215512","MEAN_ANOMALY":"88.8607","TLE_LINE1":"1 53478U 22099P   22240.91667824 -.01215475  00000-0 -12458-1 0  9990","APOAPSIS":"367.214","CENTER_NAME":"EARTH","PERIAPSIS":"364.694","FILE":"3550014","RA_OF_ASC_NODE":"359.6500","BSTAR":"-0.01245800000000","MEAN_ELEMENT_THEORY":"SGP4","MEAN_MOTION":"15.67537056","TIME_SYSTEM":"UTC","EPHEMERIS_TYPE":"0"},{"CLASSIFICATION_TYPE":"U","OBJECT_NAME":"STARLINK-4436","RCS_SIZE":"LARGE","PERIOD":"91.861","SITE":"AFWTR","DECAY_DATE":null,"EPOCH":"2022-08-28T22:00:00.999936","ARG_OF_PERICENTER":"63.1595","NORAD_CAT_ID":"53479","REV_AT_EPOCH":"130","OBJECT_ID":"2022-099Q","INCLINATION":"97.6558","LAUNCH_DATE":"2022-08-12","REF_FRAME":"TEME","APOAPSIS":"367.158","TLE_LINE1":"1 53479U 22099Q   22240.91667824 -.01214600  00000-0 -12426-1 0  9995","CENTER_NAME":"EARTH","MEAN_ANOMALY":"102.8675","RA_OF_ASC_NODE":"359.6509","MEAN_ELEMENT_THEORY":"SGP4","BSTAR":"-0.01242600000000","MEAN_MOTION":"15.67579579","EPHEMERIS_TYPE":"0","TIME_SYSTEM":"UTC","PERIAPSIS":"364.506","FILE":"3550014","OBJECT_TYPE":"PAYLOAD","COUNTRY_CODE":"US","MEAN_MOTION_DDOT":"0.0000000000000","TLE_LINE2":"2 53479  97.6558 359.6509 0001966  63.1595 102.8675 15.67579579  1302","ELEMENT_SET_NO":"999","GP_ID":"211215800","ECCENTRICITY":"0.00019660","SEMIMAJOR_AXIS":"6743.967","MEAN_MOTION_DOT":"-0.01214600"},{"GP_ID":"211214949","ECCENTRICITY":"0.00019740","SEMIMAJOR_AXIS":"6744.029","MEAN_MOTION_DOT":"-0.01214701","COUNTRY_CODE":"US","OBJECT_TYPE":"PAYLOAD","MEAN_MOTION_DDOT":"0.0000000000000","TLE_LINE2":"2 53480  97.6558 359.6504 0001974  62.3491 101.8098 15.67558078  1303","ELEMENT_SET_NO":"999","RA_OF_ASC_NODE":"359.6504","MEAN_ELEMENT_THEORY":"SGP4","BSTAR":"-0.01243800000000","MEAN_MOTION":"15.67558078","EPHEMERIS_TYPE":"0","TIME_SYSTEM":"UTC","FILE":"3550014","PERIAPSIS":"364.562","TLE_LINE1":"1 53480U 22099R   22240.91667824 -.01214701  00000-0 -12438-1 0  9992","APOAPSIS":"367.225","CENTER_NAME":"EARTH","MEAN_ANOMALY":"101.8098","LAUNCH_DATE":"2022-08-12","REF_FRAME":"TEME","NORAD_CAT_ID":"53480","REV_AT_EPOCH":"130","OBJECT_ID":"2022-099R","INCLINATION":"97.6558","RCS_SIZE":"LARGE","PERIOD":"91.863","SITE":"AFWTR","DECAY_DATE":null,"EPOCH":"2022-08-28T22:00:00.999936","ARG_OF_PERICENTER":"62.3491","CLASSIFICATION_TYPE":"U","OBJECT_NAME":"STARLINK-4442"},{"LAUNCH_DATE":"2022-08-12","REF_FRAME":"TEME","NORAD_CAT_ID":"53481","REV_AT_EPOCH":"130","OBJECT_ID":"2022-099S","INCLINATION":"97.6558","RCS_SIZE":"LARGE","PERIOD":"91.861","SITE":"AFWTR","DECAY_DATE":null,"EPOCH":"2022-08-28T22:00:00.999936","ARG_OF_PERICENTER":"59.1517","CLASSIFICATION_TYPE":"U","OBJECT_NAME":"STARLINK-4302","GP_ID":"211215658","ECCENTRICITY":"0.00020190","SEMIMAJOR_AXIS":"6743.927","MEAN_MOTION_DOT":"-0.01214286","COUNTRY_CODE":"US","OBJECT_TYPE":"PAYLOAD","MEAN_MOTION_DDOT":"0.0000000000000","TLE_LINE2":"2 53481  97.6558 359.6512 0002019  59.1517 108.1204 15.67593716  1304","ELEMENT_SET_NO":"999","RA_OF_ASC_NODE":"359.6512","MEAN_ELEMENT_THEORY":"SGP4","BSTAR":"-0.01241500000000","MEAN_MOTION":"15.67593716","EPHEMERIS_TYPE":"0","TIME_SYSTEM":"UTC","PERIAPSIS":"364.430","FILE":"3550014","TLE_LINE1":"1 53481U 22099S   22240.91667824 -.01214286  00000-0 -12415-1 0  9996","APOAPSIS":"367.153","CENTER_NAME":"EARTH","MEAN_ANOMALY":"108.1204"},{"PERIAPSIS":"364.452","FILE":"3550014","MEAN_MOTION":"15.67586535","EPHEMERIS_TYPE":"0","TIME_SYSTEM":"UTC","RA_OF_ASC_NODE":"359.6508","MEAN_ELEMENT_THEORY":"SGP4","BSTAR":"-0.01241900000000","MEAN_ANOMALY":"107.4684","CENTER_NAME":"EARTH","APOAPSIS":"367.172","TLE_LINE1":"1 53482U 22099T   22240.91667824 -.01214317  00000-0 -12419-1 0  9996","SEMIMAJOR_AXIS":"6743.947","MEAN_MOTION_DOT":"-0.01214317","ECCENTRICITY":"0.00020170","GP_ID":"211215095","ELEMENT_SET_NO":"999","TLE_LINE2":"2 53482  97.6558 359.6508 0002017  59.1812 107.4684 15.67586535  1301","OBJECT_TYPE":"PAYLOAD","COUNTRY_CODE":"US","MEAN_MOTION_DDOT":"0.0000000000000","EPOCH":"2022-08-28T22:00:00.999936","ARG_OF_PERICENTER":"59.1812","DECAY_DATE":null,"SITE":"AFWTR","RCS_SIZE":"LARGE","PERIOD":"91.861","OBJECT_NAME":"STARLINK-4360","CLASSIFICATION_TYPE":"U","REF_FRAME":"TEME","LAUNCH_DATE":"2022-08-12","INCLINATION":"97.6558","OBJECT_ID":"2022-099T","NORAD_CAT_ID":"53482","REV_AT_EPOCH":"130"}];
